IRIDIUM 8 [+]           
1 24792U 97020A   17074.88633670  .00000177  00000-0  56093-4 0  9994
2 24792  86.4008 357.6976 0002241  83.1662 276.9789 14.34214955 39592
IRIDIUM 7 [+]           
1 24793U 97020B   17074.87999478  .00000182  00000-0  58077-4 0  9995
2 24793  86.4013 357.9781 0002196  84.1817 275.9629 14.34214267 39596
IRIDIUM 6 [+]           
1 24794U 97020C   17074.87357904  .00000183  00000-0  58250-4 0  9992
2 24794  86.4012 357.9135 0002137  83.7023 276.4416 14.34213454 39584
IRIDIUM 5 [+]           
1 24795U 97020D   17074.86750656  .00000210  00000-0  67896-4 0  9990
2 24795  86.4026 357.9293 0002112  85.7240 274.4197 14.34219278 39866
IRIDIUM 4 [-]           
1 24796U 97020E   17074.92252355  .00000170  00000-0  52718-4 0  9993
2 24796  86.4007 356.9029 0002221  85.6783 327.8623 14.35143337 39897
IRIDIUM 914 [-]         
1 24836U 97030A   17074.92815747  .00000104  00000-0  27263-4 0  9993
2 24836  86.3981  13.8992 0003758  74.1484 286.0128 14.38743923173432
IRIDIUM 12 [+]          
1 24837U 97030B   17074.96611024  .00000119  00000-0  35502-4 0  9991
2 24837  86.3985  29.0533 0002277  86.5588 340.0204 14.34217344 33300
IRIDIUM 10 [+]          
1 24839U 97030D   17074.95293537  .00000127  00000-0  38405-4 0  9991
2 24839  86.3985  29.0392 0002285  85.2199 338.5737 14.34217358 33575
IRIDIUM 13 [+]          
1 24840U 97030E   17074.95957498  .00000125  00000-0  37507-4 0  9996
2 24840  86.3986  29.1743 0002360  89.5922 270.5544 14.34216899 33585
IRIDIUM 16 [-]          
1 24841U 97030F   17074.94241515  .00000092  00000-0  24652-4 0  9992
2 24841  86.4065  29.0564 0001429 161.9522 198.1726 14.36694707 33937
IRIDIUM 911 [-]         
1 24842U 97030G   17074.89768893  .00000129  00000-0  31136-4 0  9996
2 24842  86.4490  29.9144 0016143  46.9117 313.3432 14.44939207 39481
IRIDIUM 15 [+]          
1 24869U 97034A   17074.93117238  .00000047  00000-0  97324-5 0  9996
2 24869  86.3934  61.0826 0002026  86.2502 273.8926 14.34217353 30272
IRIDIUM 17 [-]          
1 24870U 97034B   17074.91873058  .00000097  00000-0  26831-4 0  9994
2 24870  86.3943  59.2528 0003213 120.3912 239.7602 14.35742420 30794
IRIDIUM 920 [-]         
1 24871U 97034C   17074.94541002  .00000106  00000-0  27796-4 0  9991
2 24871  86.3975  45.6455 0009696 291.5829  68.4336 14.39457309 32670
IRIDIUM 18 [+]          
1 24872U 97034D   17074.91216262  .00000051  00000-0  10992-4 0  9995
2 24872  86.3941  61.0610 0002124  88.3816 271.7624 14.34216058 30504
IRIDIUM 921 [-]         
1 24873U 97034E   17074.61424916  .00000336  00000-0  17888-4 0  9997
2 24873  86.3910 110.2281 0008235  19.8627 340.2930 15.11168970 73683
IRIDIUM 26 [-]          
1 24903U 97043A   17074.67849458  .00000121  00000-0  35519-4 0  9992
2 24903  86.3936 293.9551 0001934  88.7685 333.0803 14.35243806 24088
IRIDIUM 25 [+]          
1 24904U 97043B   17074.65106823 -.00000026  00000-0 -16313-4 0  9990
2 24904  86.3931 294.5412 0001863  81.7060 278.4347 14.34218862 24211
IRIDIUM 46 [+]          
1 24905U 97043C   17074.66373680  .00000018  00000-0 -55739-6 0  9996
2 24905  86.3934 294.4972 0001755  83.3954 276.7441 14.34216610 24423
IRIDIUM 23 [+]          
1 24906U 97043D   17074.66909392 -.00000036  00000-0 -20089-4 0  9991
2 24906  86.3944 294.5684 0001929  78.1128 342.3167 14.34219127 24155
IRIDIUM 22 [+]          
1 24907U 97043E   17074.70181449 -.00000010  00000-0 -10615-4 0  9998
2 24907  86.3943 295.1784 0001958  81.3564 278.7854 14.34217711 24449
DUMMY MASS 1 [-]        
1 24925U 97048A   17074.52577052  .00000065  00000-0  43026-5 0  9993
2 24925  86.3309  86.6100 0007965  30.8173 329.3517 14.85123211 57441
DUMMY MASS 2 [-]        
1 24926U 97048B   17074.95398163  .00000061  00000-0  38748-5 0  9996
2 24926  86.3308  87.5135 0008967  34.6087 325.5718 14.84891327 57358
IRIDIUM 29 [-]          
1 24944U 97051A   17074.78775537 -.00000045  00000-0 -23014-4 0  9998
2 24944  86.3981 325.9622 0002435  83.4444 276.7029 14.34619264 21040
IRIDIUM 32 [+]          
1 24945U 97051B   17074.73062684  .00000227  00000-0  74172-4 0  9997
2 24945  86.3978 326.1870 0002162  81.5218 278.6223 14.34218528 21023
IRIDIUM 33 [-]          
1 24946U 97051C   17074.78936568  .00000097  00000-0  28118-4 0  9998
2 24946  86.3896 325.8428 0007790 172.3292 187.8024 14.33541444 20643
IRIDIUM 28 [-]          
1 24948U 97051E   17074.79371643  .00000104  00000-0  29209-4 0  9999
2 24948  86.3984 325.2462 0001872  92.6375 267.5036 14.35537250 21110
IRIDIUM 30 [+]          
1 24949U 97051F   17074.79406507 -.00000037  00000-0 -20265-4 0  9998
2 24949  86.3998 326.2781 0001649  88.6653 271.4731 14.34219131 20802
IRIDIUM 31 [+]          
1 24950U 97051G   17074.78771475  .00000164  00000-0  51507-4 0  9990
2 24950  86.3978 326.2562 0002256  85.1102 275.0351 14.34219819 21100
IRIDIUM 19 [+]          
1 24965U 97056A   17074.91175204  .00000181  00000-0  57557-4 0  9994
2 24965  86.4009 357.6979 0002209  83.7738 276.3710 14.34222552 19185
IRIDIUM 35 [+]          
1 24966U 97056B   17074.85462680  .00000186  00000-0  59334-4 0  9995
2 24966  86.4010 357.7166 0002288  83.4191 276.7265 14.34218220 18875
IRIDIUM 36 [-]          
1 24967U 97056C   17074.87170485  .00000083  00000-0  21871-4 0  9998
2 24967  86.4021 356.8404 0002312  87.7533 272.3928 14.35589455 19475
IRIDIUM 37 [+]          
1 24968U 97056D   17074.89912883  .00000194  00000-0  62320-4 0  9994
2 24968  86.4011 357.8815 0002233  83.2596 276.8854 14.34220183 18952
IRIDIUM 34 [+]          
1 24969U 97056E   17074.91807942  .00000189  00000-0  60322-4 0  9991
2 24969  86.4011 357.8103 0002226  84.7608 275.3842 14.34221702 19179
IRIDIUM 43 [+]          
1 25039U 97069A   17074.90579186 -.00000013  00000-0 -11550-4 0  9996
2 25039  86.3935  60.9986 0002303  87.9755 272.1705 14.34215842 12946
IRIDIUM 41 [+]          
1 25040U 97069B   17074.89946704  .00000029  00000-0  34162-5 0  9990
2 25040  86.3940  60.9481 0002069  87.9510 272.1923 14.34216034 12645
IRIDIUM 40 [+]          
1 25041U 97069C   17074.43644259 -.00000030  00000-0 -17843-4 0  9991
2 25041  86.3933  61.3713 0003168  96.0158 264.1399 14.34216167 12893
IRIDIUM 39 [B]          
1 25042U 97069D   17074.95124884  .00000116  00000-0  26826-4 0  9990
2 25042  86.3901  58.9845 0016776 262.3008  97.6289 14.46135410 12989
IRIDIUM 38 [-]          
1 25043U 97069E   17074.91803689  .00000107  00000-0  30093-4 0  9995
2 25043  86.3943  58.2337 0001491 127.5126 232.6207 14.36014927 13087
IRIDIUM 42 [-]          
1 25077U 97077A   17074.92888769  .00000103  00000-0  29569-4 0  9996
2 25077  86.3942  60.8997 0002032  90.4468 269.6960 14.34531640  8818
IRIDIUM 44 [-]          
1 25078U 97077B   17074.90905569  .00000073  00000-0  17382-4 0  9999
2 25078  86.3955  50.7109 0001869 136.5187 223.6159 14.38103898 10191
IRIDIUM 45 [+]          
1 25104U 97082A   17074.78137116  .00000180  00000-0  57054-4 0  9995
2 25104  86.3976 326.2923 0001144  99.6703 260.4622 14.34218578  6724
IRIDIUM 24 [-]          
1 25105U 97082B   17074.91864810  .00000088  00000-0  21835-4 0  9994
2 25105  86.3882 274.8422 0009745 297.1919  62.8286 14.39840749  9181
IRIDIUM 47 [+]          
1 25106U 97082C   17074.67009369 -.00000026  00000-0 -16511-4 0  9997
2 25106  86.3929 294.4070 0001951  76.7528 283.3886 14.34218229  6673
IRIDIUM 49 [+]          
1 25108U 97082E   17074.69536948 -.00000036  00000-0 -19921-4 0  9998
2 25108  86.3931 294.4969 0001923  80.1636 344.9458 14.34218228  6716
IRIDIUM 52 [+]          
1 25169U 98010A   17074.92153973  .00000114  00000-0  33566-4 0  9992
2 25169  86.3989  29.3641 0002274  86.8097 273.3359 14.34217298998139
IRIDIUM 56 [+]          
1 25170U 98010B   17074.91529369  .00000140  00000-0  43022-4 0  9996
2 25170  86.3994  29.4654 0002049  86.3937 273.7493 14.34217459998334
IRIDIUM 54 [+]          
1 25171U 98010C   17074.94690455  .00000108  00000-0  31645-4 0  9997
2 25171  86.3990  29.3739 0002290  86.7732 273.3726 14.34217272998573
IRIDIUM 50 [+]          
1 25172U 98010D   17074.90882813  .00000115  00000-0  33910-4 0  9990
2 25172  86.3989  29.3466 0002343  85.2039 274.9425 14.34217494998111
IRIDIUM 53 [+]          
1 25173U 98010E   17074.92789372  .00000109  00000-0  32008-4 0  9999
2 25173  86.3989  29.3445 0002285  86.4346 273.7111 14.34218170998120
IRIDIUM 51 [S]          
1 25262U 98018A   17074.87380494  .00000205  00000-0  66098-4 0  9995
2 25262  86.4039 358.0258 0002405  75.7177 284.4286 14.34225232997552
IRIDIUM 61 [+]          
1 25263U 98018B   17074.90552127  .00000180  00000-0  57198-4 0  9997
2 25263  86.4011 357.8443 0002196  83.5007 276.6439 14.34220800993276
IRIDIUM 55 [+]          
1 25272U 98019A   17074.76868825  .00000073  00000-0  19109-4 0  9998
2 25272  86.3978 326.0801 0002105  81.5037 278.6397 14.34218138992459
IRIDIUM 57 [-]          
1 25273U 98019B   17074.73878535  .00000091  00000-0  25556-4 0  9998
2 25273  86.3985 326.3972 0002261  85.7548 274.3906 14.34260120992464
IRIDIUM 58 [+]          
1 25274U 98019C   17074.74966048  .00000097  00000-0  27624-4 0  9991
2 25274  86.3985 326.5865 0002051  81.1966 278.9462 14.34217885992466
IRIDIUM 59 [+]          
1 25275U 98019D   17074.89553931  .00000178  00000-0  56377-4 0  9998
2 25275  86.3980 326.3834 0002215  81.2492 278.8954 14.34219640992762
IRIDIUM 60 [+]          
1 25276U 98019E   17074.76234569  .00000069  00000-0  17445-4 0  9990
2 25276  86.3975 326.0624 0002100  82.0587 278.0847 14.34218413992465
IRIDIUM 62 [+]          
1 25285U 98021A   17074.93308663  .00000007  00000-0 -45763-5 0  9997
2 25285  86.3918 262.8730 0001999  88.1156 272.0269 14.34215818991659
IRIDIUM 63 [-]          
1 25286U 98021B   17074.91642543  .00000085  00000-0  23195-4 0  9993
2 25286  86.3947 263.2848 0002298  86.4091  29.0564 14.34646387991397
